{
    "week": 295,
    "satellites": [
        {
            "Name": "GSAT0218 (GALILEO 22)",
            "Line1": "1 43058U 17079D   24341.32147332  .00000031  00000+0  00000+0 0  9995",
            "Line2": "2 43058  55.2659 236.8570 0003041 301.3942  58.6584  1.70473791 43478",
            "SatelliteNumber": "43058",
            "Classification": "U",
            "LaunchYear": "17",
            "LaunchNumber": "079",
            "PieceOfLaunch": "D",
            "EpochYear": "24",
            "EpochDay": 341.32147332,
            "FirstDerivativeMeanMotion": 3.1e-07,
            "SecondDerivativeMeanMotion": "00000+0",
            "BSTAR": "00000+0",
            "SetNumber": "999",
            "Inclination": 55.2659,
            "RAAN": 236.857,
            "Eccentricity": 0.0003041,
            "ArgumentOfPerigee": 301.3942,
            "MeanAnomaly": 58.6584,
            "MeanMotion": 1.70473791,
            "RevolutionNumber": "4347"
        },
        {
            "Name": "GSAT0221 (GALILEO 25)",
            "Line1": "1 43564U 18060A   24341.22248373 -.00000060  00000+0  00000+0 0  9997",
            "Line2": "2 43564  57.2951 356.8345 0006317 277.0626  82.9087  1.70475743 39660",
            "SatelliteNumber": "43564",
            "Classification": "U",
            "LaunchYear": "18",
            "LaunchNumber": "060",
            "PieceOfLaunch": "A",
            "EpochYear": "24",
            "EpochDay": 341.22248373,
            "FirstDerivativeMeanMotion": -6e-07,
            "SecondDerivativeMeanMotion": "00000+0",
            "BSTAR": "00000+0",
            "SetNumber": "999",
            "Inclination": 57.2951,
            "RAAN": 356.8345,
            "Eccentricity": 0.0006317,
            "ArgumentOfPerigee": 277.0626,
            "MeanAnomaly": 82.9087,
            "MeanMotion": 1.70475743,
            "RevolutionNumber": "3966"
        },
        {
            "Name": "GSAT0222 (GALILEO 26)",
            "Line1": "1 43565U 18060B   24339.68149327 -.00000059  00000+0  00000+0 0  9992",
            "Line2": "2 43565  57.2992 356.8781 0005766 255.9008 104.0812  1.70475566 39672",
            "SatelliteNumber": "43565",
            "Classification": "U",
            "LaunchYear": "18",
            "LaunchNumber": "060",
            "PieceOfLaunch": "B",
            "EpochYear": "24",
            "EpochDay": 339.68149327,
            "FirstDerivativeMeanMotion": -5.9e-07,
            "SecondDerivativeMeanMotion": "00000+0",
            "BSTAR": "00000+0",
            "SetNumber": "999",
            "Inclination": 57.2992,
            "RAAN": 356.8781,
            "Eccentricity": 0.0005766,
            "ArgumentOfPerigee": 255.9008,
            "MeanAnomaly": 104.0812,
            "MeanMotion": 1.70475566,
            "RevolutionNumber": "3967"
        },
        {
            "Name": "GSAT0219 (GALILEO 23)",
            "Line1": "1 43566U 18060C   24341.07629368 -.00000060  00000+0  00000+0 0  9999",
            "Line2": "2 43566  57.2978 356.8423 0005438 281.6078  78.3745  1.70475735 39675",
            "SatelliteNumber": "43566",
            "Classification": "U",
            "LaunchYear": "18",
            "LaunchNumber": "060",
            "PieceOfLaunch": "C",
            "EpochYear": "24",
            "EpochDay": 341.07629368,
            "FirstDerivativeMeanMotion": -6e-07,
            "SecondDerivativeMeanMotion": "00000+0",
            "BSTAR": "00000+0",
            "SetNumber": "999",
            "Inclination": 57.2978,
            "RAAN": 356.8423,
            "Eccentricity": 0.0005438,
            "ArgumentOfPerigee": 281.6078,
            "MeanAnomaly": 78.3745,
            "MeanMotion": 1.70475735,
            "RevolutionNumber": "3967"
        },
        {
            "Name": "GSAT0220 (GALILEO 24)",
            "Line1": "1 43567U 18060D   24338.95070129 -.00000059  00000+0  00000+0 0  9996",
            "Line2": "2 43567  57.2979 356.9004 0005637 278.9089  81.0752  1.70475732 39626",
            "SatelliteNumber": "43567",
            "Classification": "U",
            "LaunchYear": "18",
            "LaunchNumber": "060",
            "PieceOfLaunch": "D",
            "EpochYear": "24",
            "EpochDay": 338.95070129,
            "FirstDerivativeMeanMotion": -5.9e-07,
            "SecondDerivativeMeanMotion": "00000+0",
            "BSTAR": "00000+0",
            "SetNumber": "999",
            "Inclination": 57.2979,
            "RAAN": 356.9004,
            "Eccentricity": 0.0005637,
            "ArgumentOfPerigee": 278.9089,
            "MeanAnomaly": 81.0752,
            "MeanMotion": 1.70475732,
            "RevolutionNumber": "3962"
        },
        {
            "Name": "GSAT0223 (GALILEO 27)",
            "Line1": "1 49809U 21116A   24341.43722037 -.00000060  00000+0  00000+0 0  9998",
            "Line2": "2 49809  57.2878 356.7265 0004217 242.9062 293.6531  1.70475774 18664",
            "SatelliteNumber": "49809",
            "Classification": "U",
            "LaunchYear": "21",
            "LaunchNumber": "116",
            "PieceOfLaunch": "A",
            "EpochYear": "24",
            "EpochDay": 341.43722037,
            "FirstDerivativeMeanMotion": -6e-07,
            "SecondDerivativeMeanMotion": "00000+0",
            "BSTAR": "00000+0",
            "SetNumber": "999",
            "Inclination": 57.2878,
            "RAAN": 356.7265,
            "Eccentricity": 0.0004217,
            "ArgumentOfPerigee": 242.9062,
            "MeanAnomaly": 293.6531,
            "MeanMotion": 1.70475774,
            "RevolutionNumber": "1866"
        },
        {
            "Name": "GSAT0224 (GALILEO 28)",
            "Line1": "1 49810U 21116B   24336.27781841 -.00000062  00000+0  00000+0 0  9996",
            "Line2": "2 49810  57.2889 356.8642 0003741 245.2487 117.3978  1.70476203 18605",
            "SatelliteNumber": "49810",
            "Classification": "U",
            "LaunchYear": "21",
            "LaunchNumber": "116",
            "PieceOfLaunch": "B",
            "EpochYear": "24",
            "EpochDay": 336.27781841,
            "FirstDerivativeMeanMotion": -6.2e-07,
            "SecondDerivativeMeanMotion": "00000+0",
            "BSTAR": "00000+0",
            "SetNumber": "999",
            "Inclination": 57.2889,
            "RAAN": 356.8642,
            "Eccentricity": 0.0003741,
            "ArgumentOfPerigee": 245.2487,
            "MeanAnomaly": 117.3978,
            "MeanMotion": 1.70476203,
            "RevolutionNumber": "1860"
        },
        {
            "Name": "GSAT0225 (GALILEO 29)",
            "Line1": "1 59598U 24079A   24337.44153372  .00000046  00000+0  00000+0 0  9994",
            "Line2": "2 59598  54.7898 116.7999 0002998 170.9823 176.9189  1.70474907  3732",
            "SatelliteNumber": "59598",
            "Classification": "U",
            "LaunchYear": "24",
            "LaunchNumber": "079",
            "PieceOfLaunch": "A",
            "EpochYear": "24",
            "EpochDay": 337.44153372,
            "FirstDerivativeMeanMotion": 4.6e-07,
            "SecondDerivativeMeanMotion": "00000+0",
            "BSTAR": "00000+0",
            "SetNumber": "999",
            "Inclination": 54.7898,
            "RAAN": 116.7999,
            "Eccentricity": 0.0002998,
            "ArgumentOfPerigee": 170.9823,
            "MeanAnomaly": 176.9189,
            "MeanMotion": 1.70474907,
            "RevolutionNumber": "373"
        },
        {
            "Name": "GSAT0227 (GALILEO 30)",
            "Line1": "1 59600U 24079C   24341.16401885  .00000051  00000+0  00000+0 0  9993",
            "Line2": "2 59600  54.7864 116.6957 0003468 121.3916 238.6122  1.70474686  3858",
            "SatelliteNumber": "59600",
            "Classification": "U",
            "LaunchYear": "24",
            "LaunchNumber": "079",
            "PieceOfLaunch": "C",
            "EpochYear": "24",
            "EpochDay": 341.16401885,
            "FirstDerivativeMeanMotion": 5.1e-07,
            "SecondDerivativeMeanMotion": "00000+0",
            "BSTAR": "00000+0",
            "SetNumber": "999",
            "Inclination": 54.7864,
            "RAAN": 116.6957,
            "Eccentricity": 0.0003468,
            "ArgumentOfPerigee": 121.3916,
            "MeanAnomaly": 238.6122,
            "MeanMotion": 1.70474686,
            "RevolutionNumber": "385"
        },
        {
            "Name": "GSAT0232 (GALILEO 32)",
            "Line1": "1 61182U 24167A   24321.21686440 -.00000004  00000+0  00000+0 0  9994",
            "Line2": "2 61182  55.3884 237.1378 0015743 276.0571  83.7985  1.73178105  1028",
            "SatelliteNumber": "61182",
            "Classification": "U",
            "LaunchYear": "24",
            "LaunchNumber": "167",
            "PieceOfLaunch": "A",
            "EpochYear": "24",
            "EpochDay": 321.2168644,
            "FirstDerivativeMeanMotion": -4e-08,
            "SecondDerivativeMeanMotion": "00000+0",
            "BSTAR": "00000+0",
            "SetNumber": "999",
            "Inclination": 55.3884,
            "RAAN": 237.1378,
            "Eccentricity": 0.0015743,
            "ArgumentOfPerigee": 276.0571,
            "MeanAnomaly": 83.7985,
            "MeanMotion": 1.73178105,
            "RevolutionNumber": "102"
        }
    ]
}